0 ajisai 2021-04-16 0.3527981190704621 2021-04-09 2021-04-16
1 99999U          21106.00000000 +.00000000 +58372-2 +62596-1 4    00
2 99999 050.0083 193.3975 0017844 068.1847 266.7973 12.44334394    00
0 ajisai 2021-04-17 0.35193349044114347 2021-04-10 2021-04-17
1 99999U          21107.00000000 +.00000000 +00000-0 +78438-1 4    00
2 99999 050.0078 190.3226 0017954 069.7956 067.9086 12.44334396    00
0 ajisai 2021-04-18 0.3402738780964668 2021-04-11 2021-04-18
1 99999U          21108.00000000 +.00000000 +79460-2 +50000-1 4    00
2 99999 050.0076 187.2478 0018029 071.2495 229.1765 12.44334336    00
0 ajisai 2021-04-19 0.33692914238146027 2021-04-12 2021-04-19
1 99999U          21109.00000000 +.00000000 +00000-0 +33288-1 4    00
2 99999 050.0078 184.1729 0018164 072.8728 030.2762 12.44334358    00
0 ajisai 2021-04-20 0.33821354494524003 2021-04-13 2021-04-20
1 99999U          21110.00000000 +.00000000 +00000-0 +43478-1 4    00
2 99999 050.0077 181.0980 0018222 074.3951 191.4766 12.44334355    00
0 ajisai 2021-04-21 0.32089829239257006 2021-04-14 2021-04-21
1 99999U          21111.00000000 +.00000000 +76706-3 +32006-1 4    00
2 99999 050.0079 178.0231 0018325 075.9188 352.6749 12.44334330    00
0 ajisai 2021-04-22 0.33658542513771894 2021-04-15 2021-04-22
1 99999U          21112.00000000 +.00000000 +00000-0 +27668-1 4    00
2 99999 050.0082 174.9485 0018389 077.5291 153.7868 12.44334356    00
0 ajisai 2021-04-23 0.3152433960726236 2021-04-16 2021-04-23
1 99999U          21113.00000000 +.00000000 +00000-0 +96516-2 4    00
2 99999 050.0082 171.8737 0018453 078.9535 315.0844 12.44334321    00
0 ajisai 2021-04-24 0.3359612574759006 2021-04-17 2021-04-24
1 99999U          21114.00000000 +.00000000 +00000-0 +50000-1 4    00
2 99999 050.0082 168.7991 0018489 080.5795 116.1797 12.44334381    00
0 ajisai 2021-04-25 0.3151010535053417 2021-04-18 2021-04-25
1 99999U          21115.00000000 +.00000000 +65448-2 +20332-2 4    00
2 99999 050.0078 165.7242 0018519 082.0288 277.4521 12.44334317    00
0 ajisai 2021-04-26 0.33305580676806396 2021-04-19 2021-04-26
1 99999U          21116.00000000 +.00000000 +41755-2 +00000-0 4    00
2 99999 050.0076 162.6493 0018572 083.6237 078.5799 12.44334368    00
0 ajisai 2021-04-27 0.3302330205059656 2021-04-20 2021-04-27
1 99999U          21117.00000000 +.00000000 +00000-0 +55117-3 4    00
2 99999 050.0069 159.5743 0018573 085.1629 239.7632 12.44334368    00
0 ajisai 2021-04-28 0.3362718391067668 2021-04-21 2021-04-28
1 99999U          21118.00000000 +.00000000 +15940-1 +50170-3 4    00
2 99999 050.0067 156.4991 0018601 086.6219 041.0279 12.44334390    00
0 ajisai 2021-04-29 0.3474290938722318 2021-04-22 2021-04-29
1 99999U          21119.00000000 +.00000000 +00000-0 +00000-0 4    00
2 99999 050.0064 153.4237 0018613 088.2261 202.1481 12.44334409    00
0 ajisai 2021-04-30 0.3482582635904489 2021-04-23 2021-04-30
1 99999U          21120.00000000 +.00000000 +24882-1 +18311-9 4    00
2 99999 050.0063 150.3485 0018586 089.6480 003.4503 12.44334392    00
0 ajisai 2021-05-01 0.357578058226735 2021-04-24 2021-05-01
1 99999U          21121.00000000 +.00000000 +84434-2 +00000-0 4    00
2 99999 050.0065 147.2733 0018603 091.2764 164.5456 12.44334414    00
0 ajisai 2021-05-02 0.35474409044857397 2021-04-25 2021-05-02
1 99999U          21122.00000000 +.00000000 +18855-1 +00000-0 4    00
2 99999 050.0068 144.1983 0018564 092.7548 325.7910 12.44334416    00
0 ajisai 2021-05-03 0.3563378052420309 2021-04-26 2021-05-03
1 99999U          21123.00000000 +.00000000 +25167-1 +00000-0 4    00
2 99999 050.0069 141.1234 0018539 094.2726 126.9960 12.44334419    00
0 ajisai 2021-05-04 0.35867743484452885 2021-04-27 2021-05-04
1 99999U          21124.00000000 +.00000000 +71040-2 +13003-2 4    00
2 99999 050.0071 138.0485 0018511 095.8614 288.1297 12.44334438    00
0 ajisai 2021-05-05 0.34936320887108513 2021-04-28 2021-05-05
1 99999U          21125.00000000 +.00000000 +32954-1 +20127-2 4    00
2 99999 050.0071 134.9737 0018473 097.3056 089.4083 12.44334463    00
0 ajisai 2021-05-06 0.3538037023756389 2021-04-29 2021-05-06
1 99999U          21126.00000000 +.00000000 +35180-2 +00000-0 4    00
2 99999 050.0069 131.8987 0018435 098.9943 250.4425 12.44334473    00
0 ajisai 2021-05-07 0.34985658602207065 2021-04-30 2021-05-07
1 99999U          21127.00000000 +.00000000 +29442-1 +00000-0 4    00
2 99999 050.0067 128.8236 0018367 100.3818 051.7777 12.44334492    00
0 ajisai 2021-05-08 0.3421558577057807 2021-05-01 2021-05-08
1 99999U          21128.00000000 +.00000000 +20508-1 +10000-3 4    00
2 99999 050.0065 125.7483 0018319 102.0006 212.8826 12.44334511    00
0 ajisai 2021-05-09 0.34742689698419776 2021-05-02 2021-05-09
1 99999U          21129.00000000 +.00000000 +85800-2 +00000-0 4    00
2 99999 050.0064 122.6730 0018228 103.5637 014.0432 12.44334516    00
0 ajisai 2021-05-10 0.32929204585303545 2021-05-03 2021-05-10
1 99999U          21130.00000000 +.00000000 +33193-1 +00000-0 4    00
2 99999 050.0064 119.5977 0018161 105.0152 175.3154 12.44334539    00
0 ajisai 2021-05-11 0.3388081441966087 2021-05-04 2021-05-11
1 99999U          21131.00000000 +.00000000 +24809-2 +00000-0 4    00
2 99999 050.0065 116.5224 0018056 106.6930 336.3614 12.44334524    00
0 ajisai 2021-05-12 0.3262167012776445 2021-05-05 2021-05-12
1 99999U          21132.00000000 +.00000000 +28313-1 +15341-3 4    00
2 99999 050.0068 113.4474 0017977 108.1082 137.6702 12.44334548    00
0 ajisai 2021-05-13 0.3277583210581991 2021-05-06 2021-05-13
1 99999U          21133.00000000 +.00000000 +16813-1 +00000-0 4    00
2 99999 050.0071 110.3722 0017858 109.7494 298.7520 12.44334531    00
0 ajisai 2021-05-14 0.33181416613624637 2021-05-07 2021-05-14
1 99999U          21134.00000000 +.00000000 +66273-4 +30146-2 4    00
2 99999 050.0076 107.2974 0017741 111.3350 099.8893 12.44334549    00
0 ajisai 2021-05-15 0.3213407813808721 2021-05-08 2021-05-15
1 99999U          21135.00000000 +.00000000 +19335-1 +00000-0 4    00
2 99999 050.0080 104.2226 0017637 112.8654 261.0819 12.44334555    00
0 ajisai 2021-05-16 0.3477487287032614 2021-05-09 2021-05-16
1 99999U          21136.00000000 +.00000000 +00000-0 +53576-3 4    00
2 99999 050.0083 101.1479 0017470 114.4577 062.2113 12.44334547    00
0 ajisai 2021-05-17 0.3265468642117907 2021-05-10 2021-05-17
1 99999U          21137.00000000 +.00000000 +13197-1 +45000-1 4    00
2 99999 050.0087 098.0734 0017363 115.9954 223.3959 12.44334640    00
0 ajisai 2021-05-18 0.35183404217944003 2021-05-11 2021-05-18
1 99999U          21138.00000000 +.00000000 +43625-2 +27268-1 4    00
2 99999 050.0088 094.9987 0017183 117.6220 024.4911 12.44334603    00
0 ajisai 2021-05-19 0.3441054817941749 2021-05-12 2021-05-19
1 99999U          21139.00000000 +.00000000 +46109-2 +26512-1 4    00
2 99999 050.0088 091.9238 0017038 119.1690 185.6662 12.44334617    00
0 ajisai 2021-05-20 0.341080638833218 2021-05-13 2021-05-20
1 99999U          21140.00000000 +.00000000 +17864-1 +36588-1 4    00
2 99999 050.0089 088.8489 0016887 120.7493 346.8077 12.44334631    00
0 ajisai 2021-05-21 0.3481114654560805 2021-05-14 2021-05-21
1 99999U          21141.00000000 +.00000000 +21787-4 +49383-1 4    00
2 99999 050.0089 085.7738 0016699 122.3516 147.9283 12.44334644    00
0 ajisai 2021-05-22 0.34239638879273643 2021-05-15 2021-05-22
1 99999U          21142.00000000 +.00000000 +20353-1 +57681-2 4    00
2 99999 050.0089 082.6985 0016548 123.9528 309.0495 12.44334576    00
0 ajisai 2021-05-23 0.3433518446991685 2021-05-16 2021-05-23
1 99999U          21143.00000000 +.00000000 +26497-2 +72876-1 4    00
2 99999 050.0093 079.6236 0016331 125.5509 110.1737 12.44334651    00
0 ajisai 2021-05-24 0.3349793030889022 2021-05-17 2021-05-24
1 99999U          21144.00000000 +.00000000 +10627-1 +75567-1 4    00
2 99999 050.0098 076.5486 0016165 127.1963 271.2511 12.44334662    00
0 ajisai 2021-05-25 0.34215410653977113 2021-05-18 2021-05-25
1 99999U          21145.00000000 +.00000000 +10184-1 +70754-1 4    00
2 99999 050.0102 073.4739 0015939 128.8107 072.3581 12.44334614    00
0 ajisai 2021-05-26 0.33368526199441245 2021-05-19 2021-05-26
1 99999U          21146.00000000 +.00000000 +34510-2 +12142-0 4    00
2 99999 050.0108 070.3995 0015738 130.4463 233.4440 12.44334703    00
0 ajisai 2021-05-27 0.32195487851104715 2021-05-20 2021-05-27
1 99999U          21147.00000000 +.00000000 +23843-1 +12826-0 4    00
2 99999 050.0111 067.3252 0015552 132.0555 034.5555 12.44334674    00
0 ajisai 2021-05-28 0.33482773962192824 2021-05-21 2021-05-28
1 99999U          21148.00000000 +.00000000 +51157-3 +12127-0 4    00
2 99999 050.0113 064.2507 0015291 133.7446 195.5874 12.44334677    00
0 ajisai 2021-05-29 0.31191094632602967 2021-05-22 2021-05-29
1 99999U          21149.00000000 +.00000000 +27872-1 +13378-0 4    00
2 99999 050.0113 061.1762 0015117 135.3523 356.7001 12.44334673    00
0 ajisai 2021-05-30 0.32264939966833917 2021-05-23 2021-05-30
1 99999U          21150.00000000 +.00000000 +10012-1 +12436-0 4    00
2 99999 050.0112 058.1016 0014843 137.0545 157.7192 12.44334668    00
0 ajisai 2021-05-31 0.31032001864200615 2021-05-24 2021-05-31
1 99999U          21151.00000000 +.00000000 +22389-1 +11702-0 4    00
2 99999 050.0111 055.0267 0014636 138.7121 318.7831 12.44334645    00
0 ajisai 2021-06-01 0.3115370969883248 2021-05-25 2021-06-01
1 99999U          21152.00000000 +.00000000 +22482-1 +58306-1 4    00
2 99999 050.0110 051.9518 0014370 140.4437 119.7726 12.44334560    00
0 ajisai 2021-06-02 0.3142347036644018 2021-05-26 2021-06-02
1 99999U          21153.00000000 +.00000000 +20000-1 +10000-0 4    00
2 99999 050.0112 048.8771 0014124 142.0943 280.8439 12.44334635    00
0 ajisai 2021-06-03 0.30022965239161425 2021-05-27 2021-06-03
1 99999U          21154.00000000 +.00000000 +30674-1 +48527-1 4    00
2 99999 050.0113 045.8022 0013880 143.8884 081.7712 12.44334533    00
